satname,norad_id,inclination_deg,eccentricity,mean_motion_rev_per_day,perigee_km,apogee_km,l1,l2
STARLINK-1008,44714,53.1515,0.0002243,15.52015847,409.3183223421429,412.363857913374,1 44714U 19074B   26183.19600949  .00071938  00000+0  11715-2 0  9993,2 44714  53.1515 356.7710 0002243 240.6773 119.4014 15.52015847366543
STARLINK-1012,44718,53.1555,0.0002786,15.52471054,407.6229012392341,411.4049803434418,1 44718U 19074F   26183.76843676  .00074953  00000+0  12001-2 0  9995,2 44718  53.1555 354.2616 0002786 259.5965 100.4731 15.52471054366624
STARLINK-1017,44723,53.0479,0.0002871,15.33305023,463.99473907455103,467.92461938776614,1 44723U 19074L   26183.20291778  .00042344  00000+0  13013-2 0  9993,2 44723  53.0479 359.2534 0002871 104.7429 255.3890 15.33305023366480
STARLINK-1020,44725,53.1566,0.0003056,15.5809255,391.10852678993797,395.24715442051547,1 44725U 19074N   26183.51119255  .00080414  00000+0  10461-2 0  9992,2 44725  53.1566  18.5850 0003056 200.8841 159.2047 15.58092550366243
STARLINK-1036,44741,53.043,0.000109,15.75706695,341.8883877118069,343.3535129449774,1 44741U 19074AE  26183.70965627  .00077165  00000+0  49276-3 0  9999,2 44741  53.0430 343.5040 0001090   0.9149 359.1872 15.75706695366741
STARLINK-1039,44744,53.0611,0.0003256,15.30357764,472.51275694881224,476.9753530918424,1 44744U 19074AH  26183.60554691  .00037207  00000+0  12558-2 0  9991,2 44744  53.0611  43.3041 0003256 127.8704 232.2591 15.30357764365909
STARLINK-1042,44747,53.0412,7.79e-05,15.55353439,400.5973158361385,401.65352492123293,1 44747U 19074AL  26183.48770140  .00027909  00000+0  40918-3 0  9999,2 44747  53.0412 261.6426 0000779  91.7140 268.3959 15.55353439367905
STARLINK-1043,44748,53.0489,0.0002579,15.64594249,372.6644647433741,376.1474263946993,1 44748U 19074AM  26183.75536675  .00043747  00000+0  44750-3 0  9999,2 44748  53.0489 355.1444 0002579  21.4504 338.6617 15.64594249366595
STARLINK-1046,44751,53.0465,0.0004544,15.5833641,389.3948407890757,395.54796970776533,1 44751U 19074AQ  26183.51537961  .00078963  00000+0  10179-2 0  9991,2 44751  53.0465  19.1629 0004544 159.6104 200.5089 15.58336410366237
STARLINK-1047,44752,53.07,0.0002276,15.34986252,459.4047515375278,462.5179090974889,1 44752U 19074AR  26183.69870323  .00009535  00000+0  28761-3 0  9999,2 44752  53.0700 327.7116 0002276 175.5253 184.5770 15.34986252366991
STARLINK-1048,44753,53.0453,0.000365,15.69977232,356.50310201259254,361.42118438712805,1 44753U 19074AS  26183.69580793  .00057561  00000+0  47127-3 0  9998,2 44753  53.0453 326.2395 0003650 123.4022 236.7344 15.69977232366985
STARLINK-1063,44768,53.1544,0.0001726,15.52111648,409.3900004194975,411.7334592210309,1 44768U 19074BH  26183.72427111  .00062957  00000+0  10239-2 0  9990,2 44768  53.1544  35.2724 0001726 194.0993 165.9969 15.52111648366067
STARLINK-1067,44771,53.0429,0.0003255,15.8142737,324.2209994768682,328.5856552299747,1 44771U 19074BL  26183.20906698  .00127656  00000+0  62440-3 0  9999,2 44771  53.0429 358.5877 0003255 286.9233  73.1431 15.81427370366494
STARLINK-1068,44772,53.0406,0.0003285,15.79369406,330.02184886502073,334.4305574895079,1 44772U 19074BM  26183.75033188 -.00042719  00000+0 -22916-3 0  9997,2 44772  53.0406 329.8736 0003285 318.3243  41.7526 15.79369406366936
STARLINK-1114,44927,53.0392,0.0001658,15.7219765,351.50147736436065,353.73339553548703,1 44927U 20001P   26183.71662284  .00067659  00000+0  50351-3 0  9994,2 44927  53.0392 128.7125 0001658 134.3616 225.7537 15.72197650358055
STARLINK-1123,44930,53.1406,0.000775,15.61944463,376.80162406814634,387.2798995989888,1 44930U 20001S   26183.76096198  .00086429  00000+0  96863-3 0  9992,2 44930  53.1406 157.2950 0007750  38.1398 322.0163 15.61944463357679
STARLINK-1094,44941,53.1504,0.000726,15.57445161,390.13681220789204,399.97148575621486,1 44941U 20001AD  26183.72365597  .00079654  00000+0  10609-2 0  9997,2 44941  53.1504 133.2863 0007260  61.5492 298.6251 15.57445161358019
STARLINK-1122,44949,53.1529,0.000681,15.57614137,389.9520759182715,399.176495069114,1 44949U 20001AM  26183.21797532  .00015492  00000+0  21209-3 0  9996,2 44949  53.1529 136.3072 0006810  55.1513 305.0139 15.57614137357921
STARLINK-1080,44961,53.045,0.0002618,15.70155888,356.6874528406033,360.21473036536736,1 44961U 20001AZ  26183.46218551  .00064436  00000+0  52273-3 0  9993,2 44961  53.0450  90.2704 0002618 108.8543 251.2757 15.70155888358576
STARLINK-1090,44968,53.1468,0.0005168,15.53553778,402.8536511977318,409.8661071720571,1 44968U 20001BG  26183.71725693  .00072076  00000+0  11101-2 0  9991,2 44968  53.1468 122.3145 0005168  67.6005 292.5553 15.53553778358165
STARLINK-1132,45044,53.1489,0.0002666,15.59098426,388.4606603563707,392.0695723648141,1 45044U 20006A   26183.67027082  .00042299  00000+0  53538-3 0  9999,2 45044  53.1489  62.6081 0002666 128.6704 231.4548 15.59098426354772
STARLINK-1131,45047,53.155,0.0004798,15.55627219,397.0776853122552,403.5823022394825,1 45047U 20006D   26183.74022586  .00077344  00000+0  11032-2 0  9995,2 45047  53.1550  95.7519 0004798  89.8095 270.3466 15.55627219354311
STARLINK-1134,45048,53.0225,0.00067,15.62084005,377.109112372832,386.16721108955153,1 45048U 20006E   26182.65475388  .00126660  00000+0  14025-2 0  9998,2 45048  53.0225  49.3266 0006700 158.5407 201.5888 15.62084005354840
STARLINK-1156,45054,53.1571,0.0004914,15.37188289,451.0708645824616,457.78590984501534,1 45054U 20006L   26183.78510966  .00044242  00000+0  12006-2 0  9994,2 45054  53.1571 104.3408 0004914  74.4707 285.6839 15.37188289354194
STARLINK-1166,45060,53.0428,0.0001229,15.67930427,363.9953131839793,365.6527330034569,1 45060U 20006S   26183.75002315  .00025136  00000+0  22764-3 0  9996,2 45060  53.0428  76.8122 0001229 113.3168  15.9985 15.67930427  5772
STARLINK-1169,45061,53.1547,0.0006328,15.40774792,439.5044365479889,448.1383070633465,1 45061U 20006T   26183.76333727  .00059924  00000+0  14397-2 0  9996,2 45061  53.1547 102.4084 0006328  62.2239 297.9407 15.40774792354225
STARLINK-1171,45062,53.0378,0.0001194,15.78204688,334.7256927364915,336.3289157723475,1 45062U 20006U   26183.32436119  .00097044  00000+0  55263-3 0  9991,2 45062  53.0378  42.2075 0001194  88.2462 271.8695 15.78204688355000
STARLINK-1133,45064,53.1552,0.0004875,15.37125355,451.2839149976253,457.94584808212585,1 45064U 20006W   26183.69181228  .00040350  00000+0  10987-2 0  9992,2 45064  53.1552  81.5612 0004875  86.3411 273.8150 15.37125355354513
STARLINK-1167,45071,53.155,0.0003072,15.39774101,444.68014122197565,448.87336823288024,1 45071U 20006AD  26183.78323980  .00046111  00000+0  11499-2 0  9993,2 45071  53.1550  79.7478 0003072  52.5406 307.5877 15.39774101354540
STARLINK-1168,45072,53.1569,0.0003697,15.37642898,450.5561062398947,455.6071092784723,1 45072U 20006AE  26183.73223968  .00079460  00000+0  21071-2 0  9994,2 45072  53.1569  81.5245 0003697  76.2739 283.8676 15.37642898354514
STARLINK-1172,45074,53.1533,0.0003482,15.40730777,441.57584475185377,446.3267470411156,1 45074U 20006AG  26183.01097315  .00051116  00000+0  12333-2 0  9991,2 45074  53.1533  82.5444 0003482  63.8740 296.2623 15.40730777354434
STARLINK-1153,45080,53.1573,0.0004718,15.39785275,443.52375767853573,449.96371514141174,1 45080U 20006AN  26183.44059736  .00043915  00000+0  10953-2 0  9994,2 45080  53.1573  81.2663 0004718  48.7661 311.3750 15.39785275354498
STARLINK-1151,45081,53.0452,0.0005982,15.95794663,282.11451159028,290.0876060038245,1 45081U 20006AP  26183.75002315  .00211548  28723-4  51588-3 0  9996,2 45081  53.0452  26.0330 0005982 272.8350  70.1497 15.95794663  5978
STARLINK-1185,45087,53.1576,0.0004298,15.48812254,417.2775758421585,423.12142589830637,1 45087U 20006AV  26183.70090235  .00051604  00000+0  94586-3 0  9998,2 45087  53.1576  58.6087 0004298 105.3039 254.8445 15.48812254354836
STARLINK-1183,45088,53.1574,0.0004473,15.36914857,452.1821804713127,458.29531841676544,1 45088U 20006AW  26183.00226118  .00041458  00000+0  11361-2 0  9998,2 45088  53.1574  69.6279 0004473 101.0567 259.0940 15.36914857354616
STARLINK-1152,45096,53.0325,0.0002941,15.51958691,409.0110859738943,413.0044609296392,1 45096U 20006BE  26183.53374213  .00061887  00000+0  10121-2 0  9996,2 45096  53.0325  19.1930 0002941 193.3219 166.7713 15.51958691355342
STARLINK-1184,45098,53.0531,0.0005138,15.1540531,516.2042143270037,523.2924813104228,1 45098U 20006BG  26183.74565822  .00022714  00000+0  12005-2 0  9998,2 45098  53.0531  83.6808 0005138 106.8362 253.3194 15.15405310354454
STARLINK-1193,45100,53.046,0.0003782,15.70482866,354.96858684233575,360.06343477971404,1 45100U 20006BJ  26182.97538459  .00067989  00000+0  54353-3 0  9998,2 45100  53.0460  30.4424 0003782  50.7481 309.3871 15.70482866355137
STARLINK-1143,45179,53.0299,0.0004269,16.00819414,269.30933123160867,274.987344853228,1 45179U 20012B   26183.11494994  .00370531  70072-4  67780-3 0  9992,2 45179  53.0299 116.2441 0004269  92.2922 267.8596 16.00819414354001
STARLINK-1202,45183,53.1517,0.0004309,15.36784699,452.6799113651459,458.5692470941258,1 45183U 20012F   26183.53531407  .00033960  00000+0  93741-3 0  9991,2 45183  53.1517 223.9044 0004309 349.9362  10.1554 15.36784699352566
STARLINK-1216,45185,53.1537,0.0004347,15.37184788,451.46864082072443,457.4088821877767,1 45185U 20012H   26183.50873050  .00021745  00000+0  59728-3 0  9998,2 45185  53.1537 223.8278 0004347 346.1607  13.9277 15.37184788352502
STARLINK-1225,45187,53.1542,0.0004436,15.37170679,451.44962105110426,457.51151935939106,1 45187U 20012K   26183.37710924  .00035816  00000+0  97560-3 0  9995,2 45187  53.1542 224.9044 0004436 350.9041   9.1881 15.37170679352521
STARLINK-1230,45189,53.153,0.0004411,15.37024724,451.8990526270336,457.92716943498453,1 45189U 20012M   26183.52083662  .00035504  00000+0  97179-3 0  9996,2 45189  53.1530 224.3262 0004411 350.3699   9.7219 15.37024724349775
